[{"OBJECT_NAME":"STARLINK-2238","OBJECT_ID":"2021-041AH","EPOCH":"2026-03-10T00:00:02.999808","MEAN_MOTION":15.1912254,"ECCENTRICITY":8.931e-5,"INCLINATION":53.0542,"RA_OF_ASC_NODE":139.7754,"ARG_OF_PERICENTER":85.2454,"MEAN_ANOMALY":136.455,"EPHEMERIS_TYPE":0,"CLASSIFICATION_TYPE":"U","NORAD_CAT_ID":48584,"ELEMENT_SET_NO":999,"REV_AT_EPOCH":579,"BSTAR":0.0035639971,"MEAN_MOTION_DOT":0.00076253,"MEAN_MOTION_DDOT":0},{"OBJECT_NAME":"SPHINX\/FRAZIER","OBJECT_ID":"2025-052Y","EPOCH":"2026-03-09T16:24:33.293952","MEAN_MOTION":15.2264428,"ECCENTRICITY":0.00072416,"INCLINATION":97.4068,"RA_OF_ASC_NODE":323.0895,"ARG_OF_PERICENTER":127.8815,"MEAN_ANOMALY":232.3077,"EPHEMERIS_TYPE":0,"CLASSIFICATION_TYPE":"U","NORAD_CAT_ID":63232,"ELEMENT_SET_NO":999,"REV_AT_EPOCH":5472,"BSTAR":0.00035501675,"MEAN_MOTION_DOT":8.199e-5,"MEAN_MOTION_DDOT":0}]
